[{"OBJECT_NAME":"SL-6 R/B(2)","OBJECT_ID":"2006-030B","EPOCH":"2026-04-25T01:03:26.464320","MEAN_MOTION":2.05489989,"ECCENTRICITY":0.70928625,"INCLINATION":61.7497,"RA_OF_ASC_NODE":171.8595,"ARG_OF_PERICENTER":261.8809,"MEAN_ANOMALY":19.3739,"EPHEMERIS_TYPE":0,"CLASSIFICATION_TYPE":"U","NORAD_CAT_ID":29261,"ELEMENT_SET_NO":999,"REV_AT_EPOCH":14818,"BSTAR":0.0038335331,"MEAN_MOTION_DOT":3.1e-7,"MEAN_MOTION_DDOT":0},{"OBJECT_NAME":"EUTELSAT 33F","OBJECT_ID":"2006-032A","EPOCH":"2026-04-26T22:34:25.470048","MEAN_MOTION":1.00274699,"ECCENTRICITY":0.00035449,"INCLINATION":1.531,"RA_OF_ASC_NODE":82.7713,"ARG_OF_PERICENTER":314.0987,"MEAN_ANOMALY":189.7839,"EPHEMERIS_TYPE":0,"CLASSIFICATION_TYPE":"U","NORAD_CAT_ID":29270,"ELEMENT_SET_NO":999,"REV_AT_EPOCH":4679,"BSTAR":0,"MEAN_MOTION_DOT":1.46e-6,"MEAN_MOTION_DDOT":0},{"OBJECT_NAME":"JCSAT-3A","OBJECT_ID":"2006-033A","EPOCH":"2026-04-26T22:43:57.014688","MEAN_MOTION":1.00267835,"ECCENTRICITY":0.00021752,"INCLINATION":0.0122,"RA_OF_ASC_NODE":93.7404,"ARG_OF_PERICENTER":308.2615,"MEAN_ANOMALY":281.9273,"EPHEMERIS_TYPE":0,"CLASSIFICATION_TYPE":"U","NORAD_CAT_ID":29272,"ELEMENT_SET_NO":999,"REV_AT_EPOCH":4722,"BSTAR":0,"MEAN_MOTION_DOT":0,"MEAN_MOTION_DDOT":0},{"OBJECT_NAME":"KOREASAT 5 (MUGUNGWHA 5)","OBJECT_ID":"2006-034A","EPOCH":"2026-04-26T22:39:42.420672","MEAN_MOTION":1.00272162,"ECCENTRICITY":0.00016694,"INCLINATION":1.655,"RA_OF_ASC_NODE":83.5876,"ARG_OF_PERICENTER":341.0009,"MEAN_ANOMALY":243.3311,"EPHEMERIS_TYPE":0,"CLASSIFICATION_TYPE":"U","NORAD_CAT_ID":29349,"ELEMENT_SET_NO":999,"REV_AT_EPOCH":4080,"BSTAR":0,"MEAN_MOTION_DOT":-3.67e-6,"MEAN_MOTION_DDOT":0},{"OBJECT_NAME":"ZHONGXING-22A","OBJECT_ID":"2006-038A","EPOCH":"2026-04-26T11:07:24.069792","MEAN_MOTION":1.0008735,"ECCENTRICITY":6.56e-5,"INCLINATION":11.4031,"RA_OF_ASC_NODE":37.7861,"ARG_OF_PERICENTER":33.1232,"MEAN_ANOMALY":156.2844,"EPHEMERIS_TYPE":0,"CLASSIFICATION_TYPE":"U","NORAD_CAT_ID":29398,"ELEMENT_SET_NO":999,"REV_AT_EPOCH":7186,"BSTAR":0,"MEAN_MOTION_DOT":1.05e-6,"MEAN_MOTION_DDOT":0},{"OBJECT_NAME":"DIRECTV 9S","OBJECT_ID":"2006-043A","EPOCH":"2026-04-26T21:38:33.287424","MEAN_MOTION":1.00271679,"ECCENTRICITY":0.00042175,"INCLINATION":2.2904,"RA_OF_ASC_NODE":81.488,"ARG_OF_PERICENTER":329.8982,"MEAN_ANOMALY":26.945,"EPHEMERIS_TYPE":0,"CLASSIFICATION_TYPE":"U","NORAD_CAT_ID":29494,"ELEMENT_SET_NO":999,"REV_AT_EPOCH":5086,"BSTAR":0,"MEAN_MOTION_DOT":-1.22e-6,"MEAN_MOTION_DDOT":0},{"OBJECT_NAME":"OPTUS D1","OBJECT_ID":"2006-043B","EPOCH":"2026-04-26T21:08:06.207360","MEAN_MOTION":1.00271522,"ECCENTRICITY":0.00039206,"INCLINATION":2.9048,"RA_OF_ASC_NODE":80.2591,"ARG_OF_PERICENTER":314.8168,"MEAN_ANOMALY":288.8214,"EPHEMERIS_TYPE":0,"CLASSIFICATION_TYPE":"U","NORAD_CAT_ID":29495,"ELEMENT_SET_NO":999,"REV_AT_EPOCH":7160,"BSTAR":0,"MEAN_MOTION_DOT":-1.92e-6,"MEAN_MOTION_DDOT":0},{"OBJECT_NAME":"BLOCK DM-SL R/B","OBJECT_ID":"2006-049B","EPOCH":"2026-04-26T23:22:11.883360","MEAN_MOTION":2.18870956,"ECCENTRICITY":0.69464696,"INCLINATION":0.6945,"RA_OF_ASC_NODE":34.7432,"ARG_OF_PERICENTER":46.1815,"MEAN_ANOMALY":306.9169,"EPHEMERIS_TYPE":0,"CLASSIFICATION_TYPE":"U","NORAD_CAT_ID":29521,"ELEMENT_SET_NO":999,"REV_AT_EPOCH":15581,"BSTAR":0,"MEAN_MOTION_DOT":-1.18e-6,"MEAN_MOTION_DDOT":0},{"OBJECT_NAME":"BADR-4","OBJECT_ID":"2006-051A","EPOCH":"2026-04-26T22:26:00.652992","MEAN_MOTION":1.00271847,"ECCENTRICITY":0.0005951,"INCLINATION":1.8746,"RA_OF_ASC_NODE":81.634,"ARG_OF_PERICENTER":300.2478,"MEAN_ANOMALY":195.8706,"EPHEMERIS_TYPE":0,"CLASSIFICATION_TYPE":"U","NORAD_CAT_ID":29526,"ELEMENT_SET_NO":999,"REV_AT_EPOCH":5075,"BSTAR":0,"MEAN_MOTION_DOT":1.36e-6,"MEAN_MOTION_DDOT":0},{"OBJECT_NAME":"BREEZE-M R/B","OBJECT_ID":"2006-051B","EPOCH":"2026-04-20T13:18:53.982144","MEAN_MOTION":2.09456134,"ECCENTRICITY":0.63430342,"INCLINATION":14.7853,"RA_OF_ASC_NODE":352.7357,"ARG_OF_PERICENTER":275.1364,"MEAN_ANOMALY":20.1611,"EPHEMERIS_TYPE":0,"CLASSIFICATION_TYPE":"U","NORAD_CAT_ID":29527,"ELEMENT_SET_NO":999,"REV_AT_EPOCH":14876,"BSTAR":0,"MEAN_MOTION_DOT":7.0e-8,"MEAN_MOTION_DDOT":0},{"OBJECT_NAME":"FENGYUN 2D AKM","OBJECT_ID":"2006-053C","EPOCH":"2026-04-26T14:17:28.856832","MEAN_MOTION":0.99359962,"ECCENTRICITY":0.01078494,"INCLINATION":11.715,"RA_OF_ASC_NODE":38.2449,"ARG_OF_PERICENTER":45.5802,"MEAN_ANOMALY":137.8833,"EPHEMERIS_TYPE":0,"CLASSIFICATION_TYPE":"U","NORAD_CAT_ID":29642,"ELEMENT_SET_NO":999,"REV_AT_EPOCH":4574,"BSTAR":0,"MEAN_MOTION_DOT":-3.53e-6,"MEAN_MOTION_DDOT":0},{"OBJECT_NAME":"WILDBLUE-1","OBJECT_ID":"2006-054A","EPOCH":"2026-04-26T21:35:41.061984","MEAN_MOTION":1.00272298,"ECCENTRICITY":0.00015888,"INCLINATION":2.6728,"RA_OF_ASC_NODE":81.1002,"ARG_OF_PERICENTER":309.0896,"MEAN_ANOMALY":37.4321,"EPHEMERIS_TYPE":0,"CLASSIFICATION_TYPE":"U","NORAD_CAT_ID":29643,"ELEMENT_SET_NO":999,"REV_AT_EPOCH":5327,"BSTAR":0,"MEAN_MOTION_DOT":-5.8e-7,"MEAN_MOTION_DDOT":0},{"OBJECT_NAME":"MEASAT-3","OBJECT_ID":"2006-056A","EPOCH":"2026-04-26T22:30:20.818944","MEAN_MOTION":0.99738877,"ECCENTRICITY":0.00041152,"INCLINATION":4.5996,"RA_OF_ASC_NODE":76.767,"ARG_OF_PERICENTER":245.5937,"MEAN_ANOMALY":310.65,"EPHEMERIS_TYPE":0,"CLASSIFICATION_TYPE":"U","NORAD_CAT_ID":29648,"ELEMENT_SET_NO":999,"REV_AT_EPOCH":4987,"BSTAR":0,"MEAN_MOTION_DOT":-3.6e-7,"MEAN_MOTION_DDOT":0},{"OBJECT_NAME":"TITAN 3C TRANSTAGE DEB","OBJECT_ID":"1968-081J","EPOCH":"2026-04-26T22:02:38.476032","MEAN_MOTION":1.00904175,"ECCENTRICITY":0.01282834,"INCLINATION":1.8182,"RA_OF_ASC_NODE":41.6221,"ARG_OF_PERICENTER":321.9515,"MEAN_ANOMALY":164.7186,"EPHEMERIS_TYPE":0,"CLASSIFICATION_TYPE":"U","NORAD_CAT_ID":30000,"ELEMENT_SET_NO":999,"REV_AT_EPOCH":7872,"BSTAR":0,"MEAN_MOTION_DOT":-1.34e-6,"MEAN_MOTION_DDOT":0},{"OBJECT_NAME":"BEIDOU-1 G4","OBJECT_ID":"2007-003A","EPOCH":"2026-04-26T16:00:04.018752","MEAN_MOTION":0.99159698,"ECCENTRICITY":0.00553811,"INCLINATION":9.7739,"RA_OF_ASC_NODE":57.493,"ARG_OF_PERICENTER":273.973,"MEAN_ANOMALY":276.3407,"EPHEMERIS_TYPE":0,"CLASSIFICATION_TYPE":"U","NORAD_CAT_ID":30323,"ELEMENT_SET_NO":999,"REV_AT_EPOCH":7019,"BSTAR":0,"MEAN_MOTION_DOT":-2.93e-6,"MEAN_MOTION_DDOT":0},{"OBJECT_NAME":"THEMIS A","OBJECT_ID":"2007-004A","EPOCH":"2026-04-26T06:25:53.697504","MEAN_MOTION":0.87844732,"ECCENTRICITY":0.83823375,"INCLINATION":7.6211,"RA_OF_ASC_NODE":114.2861,"ARG_OF_PERICENTER":189.0135,"MEAN_ANOMALY":126.3344,"EPHEMERIS_TYPE":0,"CLASSIFICATION_TYPE":"U","NORAD_CAT_ID":30580,"ELEMENT_SET_NO":999,"REV_AT_EPOCH":4082,"BSTAR":0.0073005194,"MEAN_MOTION_DOT":7.0e-7,"MEAN_MOTION_DDOT":0},{"OBJECT_NAME":"SKYNET 5A","OBJECT_ID":"2007-007B","EPOCH":"2026-04-26T23:02:55.250880","MEAN_MOTION":1.00272901,"ECCENTRICITY":0.00040553,"INCLINATION":5.1718,"RA_OF_ASC_NODE":74.3459,"ARG_OF_PERICENTER":331.7336,"MEAN_ANOMALY":249.8497,"EPHEMERIS_TYPE":0,"CLASSIFICATION_TYPE":"U","NORAD_CAT_ID":30794,"ELEMENT_SET_NO":999,"REV_AT_EPOCH":7018,"BSTAR":0,"MEAN_MOTION_DOT":-2.79e-6,"MEAN_MOTION_DDOT":0}]
