SL-6 R/B(2)             
1 29261U 06030B   26115.04405630  .00000031  00000+0  38335-2 0  9993
2 29261  61.7497 171.8595 7092862 261.8809  19.3739  2.05489989148188
EUTELSAT 33F            
1 29270U 06032A   26116.94057257  .00000146  00000+0  00000+0 0  9995
2 29270   1.5310  82.7713 0003544 314.0987 189.7839  1.00274699 46797
JCSAT-3A                
1 29272U 06033A   26116.94718767  .00000000  00000+0  00000+0 0  9997
2 29272   0.0122  93.7404 0002175 308.2615 281.9273  1.00267835 47225
KOREASAT 5 (MUGUNGWHA 5)
1 29349U 06034A   26116.94424098 -.00000367  00000+0  00000+0 0  9991
2 29349   1.6550  83.5876 0001669 341.0009 243.3311  1.00272162 40802
ZHONGXING-22A           
1 29398U 06038A   26116.46347303  .00000105  00000+0  00000+0 0  9998
2 29398  11.4031  37.7861 0000656  33.1232 156.2844  1.00087350 71862
DIRECTV 9S              
1 29494U 06043A   26116.90177416 -.00000122  00000+0  00000+0 0  9996
2 29494   2.2904  81.4880 0004217 329.8982  26.9450  1.00271679 50869
OPTUS D1                
1 29495U 06043B   26116.88062740 -.00000192  00000+0  00000+0 0  9994
2 29495   2.9048  80.2591 0003920 314.8168 288.8214  1.00271522 71601
BLOCK DM-SL R/B         
1 29521U 06049B   26116.97374865 -.00000118  00000+0  00000+0 0  9992
2 29521   0.6945  34.7432 6946469  46.1815 306.9169  2.18870956155817
BADR-4                  
1 29526U 06051A   26116.93472978  .00000136  00000+0  00000+0 0  9999
2 29526   1.8746  81.6340 0005951 300.2478 195.8706  1.00271847 50751
BREEZE-M R/B            
1 29527U 06051B   26110.55479146  .00000007  00000+0  00000+0 0  9993
2 29527  14.7853 352.7357 6343034 275.1364  20.1611  2.09456134148769
FENGYUN 2D AKM          
1 29642U 06053C   26116.59547288 -.00000353  00000+0  00000+0 0  9991
2 29642  11.7150  38.2449 0107849  45.5802 137.8833  0.99359962 45748
WILDBLUE-1              
1 29643U 06054A   26116.89978081 -.00000058  00000+0  00000+0 0  9997
2 29643   2.6728  81.1002 0001588 309.0896  37.4321  1.00272298 53278
MEASAT-3                
1 29648U 06056A   26116.93774096 -.00000036  00000+0  00000+0 0  9995
2 29648   4.5996  76.7670 0004115 245.5937 310.6500  0.99738877 49874
TITAN 3C TRANSTAGE DEB  
1 30000U 68081J   26116.91850088 -.00000134  00000+0  00000+0 0  9998
2 30000   1.8182  41.6221 0128283 321.9515 164.7186  1.00904175 78725
BEIDOU-1 G4             
1 30323U 07003A   26116.66671318 -.00000293  00000+0  00000+0 0  9998
2 30323   9.7739  57.4930 0055381 273.9730 276.3407  0.99159698 70191
THEMIS A                
1 30580U 07004A   26116.26798261  .00000070  00000+0  73005-2 0  9997
2 30580   7.6211 114.2861 8382337 189.0135 126.3344  0.87844732 40829
SKYNET 5A               
1 30794U 07007B   26116.96036170 -.00000279  00000+0  00000+0 0  9992
2 30794   5.1718  74.3459 0004055 331.7336 249.8497  1.00272901 70180
